[{"OBJECT_NAME":"KNACKSAT-2","OBJECT_ID":"1998-067XZ","EPOCH":"2026-04-04T18:57:48.329280","MEAN_MOTION":15.54148205,"ECCENTRICITY":0.00107207,"INCLINATION":51.6331,"RA_OF_ASC_NODE":301.9471,"ARG_OF_PERICENTER":281.6024,"MEAN_ANOMALY":78.3763,"EPHEMERIS_TYPE":0,"CLASSIFICATION_TYPE":"U","NORAD_CAT_ID":67683,"ELEMENT_SET_NO":999,"REV_AT_EPOCH":884,"BSTAR":0.00075544083,"MEAN_MOTION_DOT":0.0004999,"MEAN_MOTION_DDOT":0}]
